{
    "links": {
        "self": "http://www.neowsapp.com/rest/v1/neo/3276917?api_key=iIulBulltgU6a56xZRHN4H3l9WmuAYTsLGpBGhQ2"
    },
    "id": "3276917",
    "neo_reference_id": "3276917",
    "name": "(2005 GK141)",
    "designation": "2005 GK141",
    "nasa_jpl_url": "http://ssd.jpl.nasa.gov/sbdb.cgi?sstr=3276917",
    "absolute_magnitude_h": 22.156,
    "estimated_diameter": {
        "kilometers": {
            "estimated_diameter_min": 0.098481573,
            "estimated_diameter_max": 0.2202114917
        },
        "meters": {
            "estimated_diameter_min": 98.4815729651,
            "estimated_diameter_max": 220.211491681
        },
        "miles": {
            "estimated_diameter_min": 0.0611935935,
            "estimated_diameter_max": 0.1368330348
        },
        "feet": {
            "estimated_diameter_min": 323.1022838467,
            "estimated_diameter_max": 722.4786703666
        }
    },
    "is_potentially_hazardous_asteroid": false,
    "close_approach_data": [
        {
            "close_approach_date": "2005-04-20",
            "close_approach_date_full": "2005-Apr-20 14:20",
            "epoch_date_close_approach": 1114006800000,
            "relative_velocity": {
                "kilometers_per_second": "15.9250056866",
                "kilometers_per_hour": "57330.0204719101",
                "miles_per_hour": "35622.6452204488"
            },
            "miss_distance": {
                "astronomical": "0.0614884212",
                "lunar": "23.9189958468",
                "kilometers": "9198536.841182844",
                "miles": "5715705.7523134872"
            },
            "orbiting_body": "Earth"
        }
    ],
    "orbital_data": {
        "orbit_id": "9",
        "orbit_determination_date": "2017-04-06 09:11:04",
        "first_observation_date": "2005-04-13",
        "last_observation_date": "2005-04-18",
        "data_arc_in_days": 5,
        "observations_used": 27,
        "orbit_uncertainty": "9",
        "minimum_orbit_intersection": ".0127377",
        "jupiter_tisserand_invariant": "2.924",
        "epoch_osculation": "2453476.5",
        "eccentricity": ".6644723669174599",
        "semi_major_axis": "2.794265544652796",
        "inclination": "14.11253898950008",
        "ascending_node_longitude": "34.24414934732883",
        "orbital_period": "1706.082154442226",
        "perihelion_distance": ".9375533044014474",
        "perihelion_argument": "218.1902778980844",
        "aphelion_distance": "4.650977784904144",
        "perihelion_time": "2453510.509154848620",
        "mean_anomaly": "352.823736117499",
        "mean_motion": ".2110097682357481",
        "equinox": "J2000",
        "orbit_class": {
            "orbit_class_type": "APO",
            "orbit_class_description": "Near-Earth asteroid orbits which cross the Earth’s orbit similar to that of 1862 Apollo",
            "orbit_class_range": "a (semi-major axis) > 1.0 AU; q (perihelion) < 1.017 AU"
        }
    },
    "is_sentry_object": false
}